$$SOE
2460721.500000000, A.D. 2025-Feb-15 00:00:00.0000, -4.524920239066418E+08, -9.167568491151546E+07, -4.935689352372287E+07,
2460728.500000000, A.D. 2025-Feb-22 00:00:00.0000, -4.508832924223075E+08, -1.018867176616755E+08, -4.824544985104941E+07,
2460735.500000000, A.D. 2025-Mar-01 00:00:00.0000, -4.490565220490492E+08, -1.120485387855686E+08, -4.711067522969711E+07,
2460742.500000000, A.D. 2025-Mar-08 00:00:00.0000, -4.470132276381835E+08, -1.221563926686954E+08, -4.595318526763036E+07,
2460749.500000000, A.D. 2025-Mar-15 00:00:00.0000, -4.447550290362587E+08, -1.322055785989249E+08, -4.477360401669049E+07,
2460756.500000000, A.D. 2025-Mar-22 00:00:00.0000, -4.422836510867910E+08, -1.421914527269334E+08, -4.357256323521397E+07,
2460763.500000000, A.D. 2025-Mar-29 00:00:00.0000, -4.396009222165190E+08, -1.521094321823024E+08, -4.235070196254791E+07,
2460770.500000000, A.D. 2025-Apr-05 00:00:00.0000, -4.367087712846202E+08, -1.619549982039479E+08, -4.110866617908255E+07,
2460777.500000000, A.D. 2025-Apr-12 00:00:00.0000, -4.336092246217697E+08, -1.717236981788761E+08, -3.984710836655033E+07,
2460784.500000000, A.D. 2025-Apr-19 00:00:00.0000, -4.303044034473988E+08, -1.814111474711060E+08, -3.856668702382587E+07,
2460791.500000000, A.D. 2025-Apr-26 00:00:00.0000, -4.267965213967317E+08, -1.910130312458511E+08, -3.726806618075670E+07,
2460798.500000000, A.D. 2025-May-03 00:00:00.0000, -4.230878820490635E+08, -2.005251062719590E+08, -3.595191492019685E+07,
2460805.500000000, A.D. 2025-May-10 00:00:00.0000, -4.191808764347157E+08, -2.099432026955138E+08, -3.461890691141222E+07,
2460812.500000000, A.D. 2025-May-17 00:00:00.0000, -4.150779804899508E+08, -2.192632258264914E+08, -3.326971996257417E+07,
2460819.500000000, A.D. 2025-May-24 00:00:00.0000, -4.107817522913341E+08, -2.284811579932990E+08, -3.190503561341932E+07,
2460826.500000000, A.D. 2025-May-31 00:00:00.0000, -4.062948286563305E+08, -2.375930601543706E+08, -3.052553878137633E+07,
2460833.500000000, A.D. 2025-Jun-07 00:00:00.0000, -4.016199215146246E+08, -2.465950720621644E+08, -2.913191732611825E+07,
2460840.500000000, A.D. 2025-Jun-14 00:00:00.0000, -3.967598164174474E+08, -2.554834116471391E+08, -2.772486137032993E+07,
2460847.500000000, A.D. 2025-Jun-21 00:00:00.0000, -3.917173719715145E+08, -2.642543768949860E+08, -2.630506275599124E+07,
2460854.500000000, A.D. 2025-Jun-28 00:00:00.0000, -3.864955170736995E+08, -2.729043484542458E+08, -2.487321477918091E+07,
2460861.500000000, A.D. 2025-Jul-05 00:00:00.0000, -3.810972474664459E+08, -2.814297908185272E+08, -2.343001188803130E+07,
2460868.500000000, A.D. 2025-Jul-12 00:00:00.0000, -3.755256228068630E+08, -2.898272528894435E+08, -2.197614930032246E+07,
2460875.500000000, A.D. 2025-Jul-19 00:00:00.0000, -3.697837640618047E+08, -2.980933684971148E+08, -2.051232260518973E+07,
2460882.500000000, A.D. 2025-Jul-26 00:00:00.0000, -3.638748510214929E+08, -3.062248569372380E+08, -1.903922737301633E+07,
2460889.500000000, A.D. 2025-Aug-02 00:00:00.0000, -3.578021198692375E+08, -3.142185235054353E+08, -1.755755877786957E+07,
2460896.500000000, A.D. 2025-Aug-09 00:00:00.0000, -3.515688607866430E+08, -3.220712600455223E+08, -1.606801123580949E+07,
2460903.500000000, A.D. 2025-Aug-16 00:00:00.0000, -3.451784155198295E+08, -3.297800455767642E+08, -1.457127807118696E+07,
2460910.500000000, A.D. 2025-Aug-23 00:00:00.0000, -3.386341746162547E+08, -3.373419469854978E+08, -1.306805123625413E+07,
2460917.500000000, A.D. 2025-Aug-30 00:00:00.0000, -3.319395740052001E+08, -3.447541190688935E+08, -1.155902105568673E+07,
2460924.500000000, A.D. 2025-Sep-06 00:00:00.0000, -3.250980923415306E+08, -3.520138029322350E+08, -1.004487578395092E+07,
2460931.500000000, A.D. 2025-Sep-13 00:00:00.0000, -3.181132507844889E+08, -3.591183252246912E+08, -8.526301025010258E+06,
2460938.500000000, A.D. 2025-Sep-20 00:00:00.0000, -3.109886119400442E+08, -3.660650998612275E+08, -7.003979448879465E+06,
2460945.500000000, A.D. 2025-Sep-27 00:00:00.0000, -3.037277769107250E+08, -3.728516291219745E+08, -5.478590647603601E+06,
2460952.500000000, A.D. 2025-Oct-04 00:00:00.0000, -2.963343824713967E+08, -3.794755035915472E+08, -3.950810901301295E+06,
2460959.500000000, A.D. 2025-Oct-11 00:00:00.0000, -2.888120987454937E+08, -3.859344018827887E+08, -2.421312896843165E+06,
2460966.500000000, A.D. 2025-Oct-18 00:00:00.0000, -2.811646270985408E+08, -3.922260904212765E+08, -8.907654475567043E+05,
2460973.500000000, A.D. 2025-Oct-25 00:00:00.0000, -2.733956981100995E+08, -3.983484232820709E+08, 6.401667740919590E+05,
2460980.500000000, A.D. 2025-Nov-01 00:00:00.0000, -2.655090695857680E+08, -4.042993420659021E+08, 2.170823488419473E+06,
2460987.500000000, A.D. 2025-Nov-08 00:00:00.0000, -2.575085245759590E+08, -4.100768758486940E+08, 3.700549039285719E+06,
2460994.500000000, A.D. 2025-Nov-15 00:00:00.0000, -2.493978692548481E+08, -4.156791412651948E+08, 5.228692585339099E+06,
2461001.500000000, A.D. 2025-Nov-22 00:00:00.0000, -2.411809302580121E+08, -4.211043425085648E+08, 6.754608232822061E+06,
2461008.500000000, A.D. 2025-Nov-29 00:00:00.0000, -2.328615516330728E+08, -4.263507701122808E+08, 8.277655216799021E+06,
2461015.500000000, A.D. 2025-Dec-06 00:00:00.0000, -2.244435936812447E+08, -4.314167986508040E+08, 9.797198328605145E+06,
2461022.500000000, A.D. 2025-Dec-13 00:00:00.0000, -2.159309332557013E+08, -4.363008867297907E+08, 1.131260827423891E+07,
2461029.500000000, A.D. 2025-Dec-20 00:00:00.0000, -2.073274620230916E+08, -4.410015782441303E+08, 1.282326172687161E+07,
2461036.500000000, A.D. 2025-Dec-27 00:00:00.0000, -1.986370837615292E+08, -4.455175023140686E+08, 1.432854138376769E+07,
2461043.500000000, A.D. 2026-Jan-03 00:00:00.0000, -1.898637121535048E+08, -4.498473725165729E+08, 1.582783611120051E+07,
2461050.500000000, A.D. 2026-Jan-10 00:00:00.0000, -1.810112689634516E+08, -4.539899860928583E+08, 1.732054111191714E+07,
2461057.500000000, A.D. 2026-Jan-17 00:00:00.0000, -1.720836823674258E+08, -4.579442232257682E+08, 1.880605808653653E+07,
2461064.500000000, A.D. 2026-Jan-24 00:00:00.0000, -1.630848853572991E+08, -4.617090463662218E+08, 2.028379538389367E+07,
2461071.500000000, A.D. 2026-Jan-31 00:00:00.0000, -1.540188141964324E+08, -4.652834996176116E+08, 2.175316813796571E+07,
2461078.500000000, A.D. 2026-Feb-07 00:00:00.0000, -1.448894068656215E+08, -4.686667082365134E+08, 2.321359838149616E+07,
2461085.500000000, A.D. 2026-Feb-14 00:00:00.0000, -1.357006012462923E+08, -4.718578782656701E+08, 2.466451511227727E+07,
2461092.500000000, A.D. 2026-Feb-21 00:00:00.0000, -1.264563326531707E+08, -4.748562957227616E+08, 2.610535432408023E+07,
2461099.500000000, A.D. 2026-Feb-28 00:00:00.0000, -1.171605318008344E+08, -4.776613241918077E+08, 2.753555919629622E+07,
2461106.500000000, A.D. 2026-Mar-07 00:00:00.0000, -1.078171252617572E+08, -4.802724027673548E+08, 2.895458047188839E+07,
2461113.500000000, A.D. 2026-Mar-14 00:00:00.0000, -9.843003563876678E+07, -4.826890466853086E+08, 3.036187657856995E+07,
2461120.500000000, A.D. 2026-Mar-21 00:00:00.0000, -8.900317966824654E+07, -4.849108477446868E+08, 3.175691356687048E+07,
2461127.500000000, A.D. 2026-Mar-28 00:00:00.0000, -7.954046626317371E+07, -4.869374734934761E+08, 3.313916513390395E+07,
2461134.500000000, A.D. 2026-Apr-04 00:00:00.0000, -7.004579509930253E+07, -4.887686661453981E+08, 3.450811270969713E+07,
2461141.500000000, A.D. 2026-Apr-11 00:00:00.0000, -6.052305546994029E+07, -4.904042415884369E+08, 3.586324555190006E+07,
2461148.500000000, A.D. 2026-Apr-18 00:00:00.0000, -5.097612524908699E+07, -4.918440884926419E+08, 3.720406083403260E+07,
2461155.500000000, A.D. 2026-Apr-25 00:00:00.0000, -4.140886991580972E+07, -4.930881675034766E+08, 3.853006372457191E+07,
2461162.500000000, A.D. 2026-May-02 00:00:00.0000, -3.182514160772271E+07, -4.941365105516648E+08, 3.984076745200822E+07,
2461169.500000000, A.D. 2026-May-09 00:00:00.0000, -2.222877807770057E+07, -4.949892203473197E+08, 4.113569333947292E+07,
2461176.500000000, A.D. 2026-May-16 00:00:00.0000, -1.262360117487845E+07, -4.956464699215406E+08, 4.241437078603444E+07,
2461183.500000000, A.D. 2026-May-23 00:00:00.0000, -3.013414797399015E+06, -4.961085011943266E+08, 4.367633727384523E+07,
2461190.500000000, A.D. 2026-May-30 00:00:00.0000, 6.597995605199166E+06, -4.963756222497485E+08, 4.492113861806709E+07,
2461197.500000000, A.D. 2026-Jun-06 00:00:00.0000, 1.620686166359621E+07, -4.964482065918133E+08, 4.614832922106212E+07,
2461204.500000000, A.D. 2026-Jun-13 00:00:00.0000, 2.580943252161858E+07, -4.963266941826780E+08, 4.735747201079941E+07,
2461211.500000000, A.D. 2026-Jun-20 00:00:00.0000, 3.540197657038809E+07, -4.960115913383772E+08, 4.854813834862506E+07,
2461218.500000000, A.D. 2026-Jun-27 00:00:00.0000, 4.498078278596244E+07, -4.955034698226893E+08, 4.971990803436163E+07,
2461225.500000000, A.D. 2026-Jul-04 00:00:00.0000, 5.454216167115301E+07, -4.948029659143231E+08, 5.087236934526706E+07,
2461232.500000000, A.D. 2026-Jul-11 00:00:00.0000, 6.408244605645806E+07, -4.939107795795578E+08, 5.200511907460049E+07,
2461239.500000000, A.D. 2026-Jul-18 00:00:00.0000, 7.359799185399058E+07, -4.928276737249166E+08, 5.311776256323239E+07,
2461246.500000000, A.D. 2026-Jul-25 00:00:00.0000, 8.308517879011837E+07, -4.915544735276921E+08, 5.420991372220121E+07,
2461253.500000000, A.D. 2026-Aug-01 00:00:00.0000, 9.254041116610225E+07, -4.900920658933414E+08, 5.528119503795081E+07,
2461260.500000000, A.D. 2026-Aug-08 00:00:00.0000, 1.019601188623621E+08, -4.884413990767375E+08, 5.633123753784919E+07,
2461267.500000000, A.D. 2026-Aug-15 00:00:00.0000, 1.113407590015564E+08, -4.866034820177013E+08, 5.735968071497478E+07,
2461274.500000000, A.D. 2026-Aug-22 00:00:00.0000, 1.206788175091924E+08, -4.845793821694753E+08, 5.836617258183512E+07,
2461281.500000000, A.D. 2026-Aug-29 00:00:00.0000, 1.299708082826914E+08, -4.823702231915591E+08, 5.935036995047989E+07,
$$EOE